237P/LINEAR,e,14.0210,245.4155,25.1742,3.512391,0.1497269,0.43474036,202.4869,06/26.0/2020,2000,g 14.5,2.0
# From MPC107688
238P/Read,e,1.2645,51.6431,324.6936,3.163441,0.1751719,0.25232011,235.4516,06/26.0/2020,2000,g 14.5,4.0
# From MPC112394
239P/LINEAR,e,11.3023,255.9136,220.4382,4.471383,0.1042416,0.63063049,55.5541,06/26.0/2020,2000,g 17.5,2.0
# From MPC109593
240P/NEAT,e,23.5051,74.9231,352.0050,3.868328,0.1295445,0.44869605,100.0653,06/26.0/2020,2000,g 11.0,4.0
# From MPC 75729
241P/LINEAR,e,21.1014,305.4816,111.2712,4.930890,0.0900152,0.61064797,324.4934,06/26.0/2020,2000,g 13.5,4.0
# From MPC 81861
242P/Spahr,e,32.4811,180.4798,246.2313,5.477639,0.0768801,0.27789493,232.8411,06/26.0/2020,2000,g  8.0,4.0
# From MPC111774
243P/NEAT,e,7.6413,87.6557,283.5213,3.831538,0.1314148,0.35975984,88.0387,06/26.0/2020,2000,g 12.5,4.0
# From MPC 88331
244P/Scotti,e,2.2591,353.9904,92.8647,4.895491,0.0909934,0.19833243,280.5595,06/26.0/2020,2000,g  9.0,4.0
# From MPC111774
245P/WISE,e,21.1971,316.6513,316.8143,4.042442,0.1212658,0.45764382,105.2784,06/26.0/2020,2000,g 14.0,4.0
# From MPEC 2020-HN5
246P/NEAT,e,15.9872,78.7481,176.2645,4.015740,0.1224773,0.28678158,330.4007,06/26.0/2020,2000,g 10.5,4.0
# From MPC112394
247P/LINEAR,e,13.6561,54.0120,47.4867,3.970409,0.1245808,0.62452756,71.2685,06/26.0/2020,2000,g 16.5,2.0
# From MPC 75730
248P/Gibbs,e,6.3465,207.7479,209.9153,5.990746,0.0672176,0.63785010,231.6249,06/26.0/2020,2000,g 14.0,4.0
# From MPEC 2020-L06
249P/LINEAR,e,8.3969,239.1770,65.6054,2.762273,0.2146862,0.82016476,359.2491,06/26.0/2020,2000,g 15.5,4.0
# From MPC110497
250P/Larson,e,13.2401,73.6602,45.8882,3.752452,0.1355912,0.40432935,118.6011,06/26.0/2020,2000,g 14.5,4.0
# From MPC104795
251P/LINEAR,e,23.4061,219.4014,31.2593,3.509739,0.1498966,0.50554154,161.2017,06/26.0/2020,2000,g 16.5,2.0
# From MPC102956
252P/LINEAR,e,10.4108,190.9536,343.3173,3.049359,0.1850936,0.67202062,289.6749,06/26.0/2020,2000,g 17.5,4.0
# From MPC112394
253P/PANSTARRS,e,4.9424,146.8759,230.6468,3.467982,0.1526120,0.41338800,119.0706,06/26.0/2020,2000,g 14.5,4.0
# From MPC 81473
254P/McNaught,e,32.5708,129.1728,219.4630,4.616066,0.0993793,0.32041442,350.5032,06/26.0/2020,2000,g 11.0,4.0
# From NK 2214
255P/Levy,e,14.7070,277.3193,184.6429,2.925559,0.1969658,0.72548565,203.8276,06/26.0/2020,2000,g  9.0,4.0
# From MPC 84027
256P/LINEAR,e,27.6365,81.3502,124.3109,4.636068,0.0987369,0.41843318,262.3241,06/26.0/2020,2000,g 14.0,2.0
# From MPC114608
257P/Catalina,e,20.2209,207.7476,117.6436,3.764497,0.1349409,0.43088646,349.6434,06/26.0/2020,2000,g 11.5,4.0
# From MPC 79655
258P/PANSTARRS,e,6.7459,126.2479,26.1140,4.401843,0.1067216,0.20907283,0.6837,06/26.0/2020,2000,g 13.0,4.0
# From MPC106349
259P/Garradd,e,15.8880,51.4631,257.5675,2.731015,0.2183826,0.33843778,230.6451,06/26.0/2020,2000,g 15.5,4.0
# From MPEC 2020-L06
260P/McNaught,e,15.0527,349.3472,18.3990,3.622154,0.1429729,0.60890428,41.4655,06/26.0/2020,2000,g 13.5,4.0
# From MPEC 2019-TG9
261P/Larson,e,6.0762,291.1620,67.1264,3.489398,0.1512093,0.42301314,56.4415,06/26.0/2020,2000,g 14.0,4.0
# From MPC 82322
262P/McNaught-Russell,e,29.1662,217.9078,170.9986,6.876748,0.0546549,0.81505154,151.1293,06/26.0/2020,2000,g 13.5,4.0
# From MPC 89018
263P/Gibbs,e,11.5501,105.8161,34.4274,3.054928,0.1845877,0.58969943,184.4722,06/26.0/2020,2000,g  9.0,4.0
# From MPC114608
264P/Larsen,e,25.1355,220.8630,346.6938,3.898371,0.1280499,0.37451886,41.7324,06/26.0/2020,2000,g 13.0,4.0
# From MPC 79870
265P/LINEAR,e,14.3610,342.9451,33.4102,4.254703,0.1123053,0.64775686,334.3926,06/26.0/2020,2000,g 14.5,4.0
# From MPEC 2019-TG9
266P/Christensen,e,3.4259,5.0010,97.8505,3.535377,0.1482691,0.33947099,10.0058,06/26.0/2020,2000,g 12.5,4.0
# From MPC114608
267P/LONEOS,e,6.1375,228.6654,114.0880,3.212145,0.1712030,0.61400639,120.6084,06/26.0/2020,2000,g 19.5,4.0
# From MPC 92277
268P/Bernardi,e,16.1386,127.5837,0.0789,4.551154,0.1015130,0.47115322,191.6894,06/26.0/2020,2000,g 14.0,4.0
# From MPC104795
269P/Jedicke,e,7.0700,241.7023,225.9811,7.081248,0.0523045,0.43048127,109.5716,06/26.0/2020,2000,g 10.0,4.0
# From MPC 88332
270P/Gehrels,e,2.9173,222.9619,209.9200,6.669552,0.0572215,0.46686159,147.4002,06/26.0/2020,2000,g  8.0,4.0
# From MPC 92277
271P/van Houten-Lemmon,e,6.8657,9.2967,36.4726,7.048848,0.0526656,0.39327919,133.9384,06/26.0/2020,2000,g 11.0,4.0
# From MPC 81862
272P/NEAT,e,18.0762,109.4639,27.9956,4.454087,0.1048494,0.45414511,281.2104,06/26.0/2020,2000,g 16.0,2.0
# From MPC 82723
273P/Pons-Gambart,e,136.7604,320.4004,20.3007,31.70992,0.0055196,0.97404013,0.0000,12/17.0134/2012,2000,g 11.5,4.0
# From MPC 88332
274P/Tombaugh-Tenagra,e,15.8177,81.3359,38.5184,4.370736,0.1078629,0.43871838,289.6995,06/26.0/2020,2000,g 13.0,4.0
# From MPC 81862
275P/Hermann,e,21.2833,348.7571,174.1066,5.771230,0.0710889,0.71256122,194.9167,06/26.0/2020,2000,g 17.0,4.0
# From MPC114609
276P/Vorobjov,e,14.8201,211.4505,199.9516,5.311748,0.0805096,0.26731268,228.2796,06/26.0/2020,2000,g 11.5,4.0
# From MPC105243
277P/LINEAR,e,16.7790,276.3441,152.3200,3.851450,0.1303970,0.50549291,335.5883,06/26.0/2020,2000,g 14.0,4.0
# From MPEC 2020-L06
278P/McNaught,e,6.6852,15.4498,238.0819,3.693088,0.1388736,0.43488085,349.1599,06/26.0/2020,2000,g 14.0,4.0
# From MPC100285
279P/La Sagra,e,5.0515,346.2263,5.7553,3.575667,0.1457701,0.39803150,210.1697,06/26.0/2020,2000,g 14.0,4.0
# From MPC 89013
280P/Larsen,e,11.7746,131.3954,104.8047,4.528795,0.1022657,0.41805764,244.0168,06/26.0/2020,2000,g 12.5,4.0
# From MPC 83145
281P/MOSS,e,4.7198,87.1712,26.8893,4.869216,0.0917309,0.17153258,272.6131,06/26.0/2020,2000,g 11.0,4.0
# From MPC xxxxx
282P/,e,5.8100,9.2985,217.5265,4.244803,0.1126984,0.18929848,305.3462,06/26.0/2020,2000,g 13.5,2.0
# From MPEC 2013-M31
283P/Spacewatch,e,14.4538,161.1373,22.2764,4.139167,0.1170401,0.48504233,308.6130,06/26.0/2020,2000,g  9.0,4.0
# From MPEC 2020-L06
284P/McNaught,e,11.8584,144.2788,202.6471,3.675398,0.1398774,0.37588588,297.8467,06/26.0/2020,2000,g 13.0,4.0
# From MPC 85339
285P/LINEAR,e,25.0280,185.4870,178.4039,4.509045,0.1029383,0.61803879,264.1919,06/26.0/2020,2000,g 15.0,4.0
# From MPC 90771
286P/Christensen,e,17.0450,283.9660,24.7581,4.111177,0.1182374,0.42524146,278.9492,06/26.0/2020,2000,g 14.0,4.0
# From MPC 96868
287P/Christensen,e,16.3189,139.0408,188.8313,4.167809,0.1158357,0.27056254,232.2223,06/26.0/2020,2000,g 13.5,4.0
# From MPC xxxxx
288P/,e,3.2403,83.1876,280.7490,3.047360,0.1852757,0.20137328,245.9141,06/26.0/2020,2000,g 16.0,2.0
# From MPC118844
289P/Blanpain,e,5.8939,68.8894,9.8858,3.048037,0.1852140,0.68540968,34.8219,06/26.0/2020,2000,g  2.5,4.0
# From MPC 95214
290P/Jager,e,20.0893,302.7376,181.7324,6.156064,0.0645282,0.64306569,148.4947,06/26.0/2020,2000,g 10.5,4.0
# From MPC 89314
291P/NEAT,e,6.3292,238.2150,174.0259,4.509959,0.1029070,0.43652994,252.4986,06/26.0/2020,2000,g 13.0,4.0
# From MPC115887
292P/Li,e,24.2524,91.0014,319.4665,6.110324,0.0652541,0.58760857,152.6481,06/26.0/2020,2000,g 12.5,4.0
# From MPC 92278
293P/Spacewatch,e,9.0570,78.4119,41.0810,3.643437,0.1417220,0.41820338,335.0091,06/26.0/2020,2000,g 14.5,4.0
# From MPC 89013
294P/LINEAR,e,18.2172,312.5925,235.5524,3.206535,0.1716525,0.59441830,35.9164,06/26.0/2020,2000,g 15.5,4.0
# From MPC 93589
295P/LINEAR,e,21.0730,7.4160,72.9581,5.306604,0.0806267,0.61597364,180.8145,06/26.0/2020,2000,g 12.0,4.0
# From MPEC 2020-L06
296P/Garradd,e,25.2351,263.6406,350.1251,3.496661,0.1507383,0.47852080,347.3495,06/26.0/2020,2000,g 14.0,4.0
# From MPC102956
297P/Beshore,e,10.3286,97.6611,132.4750,3.442808,0.1542890,0.31930650,327.4784,06/26.0/2020,2000,g 15.0,4.0
# From MPC114609
298P/Christensen,e,7.8701,52.8274,100.6943,3.593338,0.1446961,0.38687774,349.5254,06/26.0/2020,2000,g 15.0,4.0
# From MPC101100
299P/Catalina-PANSTARRS,e,10.4778,271.6232,323.9086,4.383628,0.1073875,0.28201044,209.2169,06/26.0/2020,2000,g 11.5,4.0
# From MPC114609
300P/Catalina,e,5.6765,95.6696,222.8652,2.700031,0.2221523,0.69170692,133.6915,06/26.0/2020,2000,g 16.0,4.0
# From MPC 89014
301P/LINEAR-NEAT,e,10.3446,351.1791,193.7301,5.737703,0.0717129,0.58572262,152.5079,06/26.0/2020,2000,g 13.0,4.0
# From MPEC 2020-HN5
302P/Lemmon-PANSTARRS,e,6.0342,121.7547,208.1717,4.277468,0.1114099,0.22981193,168.9417,06/26.0/2020,2000,g 12.5,4.0
# From MPC 92278
303P/NEAT,e,7.0177,347.9702,356.8516,5.049450,0.0868636,0.51010925,180.7229,06/26.0/2020,2000,g 13.5,4.0
# From MPC 92987
304P/Ory,e,2.6067,58.9367,335.2248,3.149848,0.1763070,0.60039621,351.6296,06/26.0/2020,2000,g 16.5,4.0
# From MPC101100
305P/Skiff,e,11.6409,240.1348,147.2635,4.645207,0.0984456,0.69275290,201.8539,06/26.0/2020,2000,g 18.0,4.0
# From MPC 92278
306P/LINEAR,e,8.3103,341.3818,0.8079,3.121761,0.1786918,0.59321297,27.7210,06/26.0/2020,2000,g 19.0,4.0
# From MPC 92278
307P/LINEAR,e,4.4316,158.1291,222.1614,5.795068,0.0706507,0.67404216,142.3817,06/26.0/2020,2000,g 15.0,4.0
# From MPC109148
308P/Lagerkvist-Carsenty,e,4.8495,63.1095,333.6249,6.607923,0.0580239,0.36269315,109.0246,06/26.0/2020,2000,g 13.0,2.0
# From MPC 94284
309P/LINEAR,e,17.0237,10.1435,49.9917,4.370806,0.1078603,0.61754775,211.8528,06/26.0/2020,2000,g 15.0,4.0
# From MPC 98566
310P/Hill,e,13.1283,8.9277,31.8754,4.177496,0.1154330,0.42168749,219.5859,06/26.0/2020,2000,g 13.5,4.0
# From MPC109593
311P/PANSTARRS,e,4.9700,279.2263,144.5872,2.188421,0.3044443,0.11530325,328.5072,06/26.0/2020,2000,g 17.0,4.0
# From MPC 92279
312P/NEAT,e,19.7671,144.6693,207.5220,3.467570,0.1526392,0.42805026,346.1147,06/26.0/2020,2000,g 16.0,4.0
# From MPEC 2019-TG9
313P/Gibbs,e,10.9833,105.9716,254.6144,3.161163,0.1753613,0.23480600,12.5920,06/26.0/2020,2000,g 15.0,4.0
# From MPC105243
314P/Montani,e,3.9790,267.6204,214.2266,7.275815,0.0502206,0.41626158,68.0934,06/26.0/2020,2000,g  9.5,4.0
# From MPC115888
315P/LONEOS,e,17.8246,69.1449,65.6311,4.941064,0.0897374,0.52251022,116.7757,06/26.0/2020,2000,g 11.0,4.0
# From MPC 92279
